start=new Date('2022-06-17T00:00:00.000Z').valueOf();
sats=[{"INCLINATION":"53.0523","RA_OF_ASC_NODE":"209.8321","REV_AT_EPOCH":"7168","MEAN_MOTION_DOT":"-0.00000015","RCS_SIZE":"LARGE","SITE":"AFETR","DECAY_DATE":null,"ELEMENT_SET_NO":"999","TIME_SYSTEM":"UTC","LAUNCH_DATE":"2021-03-04","TLE_LINE1":"1 47761U 21017AR  22166.81000981 -.00000015  00000-0  17886-4 0  9991","OBJECT_NAME":"STARLINK-2179","CLASSIFICATION_TYPE":"U","SEMIMAJOR_AXIS":"6925.380","CENTER_NAME":"EARTH","COUNTRY_CODE":"US","FILE":"3496887","APOAPSIS":"548.273","EPOCH":"2022-06-15T19:26:24.847584","PERIOD":"95.593","BSTAR":"0.00001788600000","MEAN_MOTION":"15.06389892","TLE_LINE2":"2 47761  53.0523 209.8321 0001485  75.2529 284.8624 15.06389892 71685","MEAN_MOTION_DDOT":"0.0000000000000","ECCENTRICITY":"0.00014850","OBJECT_ID":"2021-017AR","PERIAPSIS":"546.216","GP_ID":"206213114","REF_FRAME":"TEME","OBJECT_TYPE":"PAYLOAD","EPHEMERIS_TYPE":"0","NORAD_CAT_ID":"47761","MEAN_ANOMALY":"284.8624","ARG_OF_PERICENTER":"75.2529","MEAN_ELEMENT_THEORY":"SGP4"},{"REV_AT_EPOCH":"7206","MEAN_MOTION_DOT":"0.00000898","RA_OF_ASC_NODE":"226.5075","INCLINATION":"53.0548","SITE":"AFETR","RCS_SIZE":"LARGE","TLE_LINE1":"1 47762U 21017AS  22166.43818460  .00000898  00000-0  79226-4 0  9993","TIME_SYSTEM":"UTC","LAUNCH_DATE":"2021-03-04","DECAY_DATE":null,"ELEMENT_SET_NO":"999","CENTER_NAME":"EARTH","SEMIMAJOR_AXIS":"6925.391","CLASSIFICATION_TYPE":"U","OBJECT_NAME":"STARLINK-2180","BSTAR":"0.00007922600000","EPOCH":"2022-06-15T10:30:59.149440","PERIOD":"95.593","COUNTRY_CODE":"US","FILE":"3496794","APOAPSIS":"548.312","MEAN_MOTION":"15.06385991","ECCENTRICITY":"0.00015240","MEAN_MOTION_DDOT":"0.0000000000000","TLE_LINE2":"2 47762  53.0548 226.5075 0001524  57.2213 302.8923 15.06385991 72061","MEAN_ANOMALY":"302.8923","ARG_OF_PERICENTER":"57.2213","MEAN_ELEMENT_THEORY":"SGP4","EPHEMERIS_TYPE":"0","NORAD_CAT_ID":"47762","REF_FRAME":"TEME","OBJECT_TYPE":"PAYLOAD","PERIAPSIS":"546.201","OBJECT_ID":"2021-017AS","GP_ID":"206206978"},{"TLE_LINE2":"2 47763  53.0543 216.4354 0001500  53.7377 306.3750 15.06393008 72189","MEAN_MOTION_DDOT":"0.0000000000000","ECCENTRICITY":"0.00015000","GP_ID":"206206726","OBJECT_ID":"2021-017AT","PERIAPSIS":"546.196","OBJECT_TYPE":"PAYLOAD","REF_FRAME":"TEME","NORAD_CAT_ID":"47763","EPHEMERIS_TYPE":"0","ARG_OF_PERICENTER":"53.7377","MEAN_ANOMALY":"306.3750","MEAN_ELEMENT_THEORY":"SGP4","APOAPSIS":"548.274","FILE":"3496794","COUNTRY_CODE":"US","PERIOD":"95.593","EPOCH":"2022-06-15T10:53:33.095328","BSTAR":"-0.00000382630000","MEAN_MOTION":"15.06393008","ELEMENT_SET_NO":"999","DECAY_DATE":null,"TIME_SYSTEM":"UTC","LAUNCH_DATE":"2021-03-04","TLE_LINE1":"1 47763U 21017AT  22166.45385527 -.00000338  00000-0 -38263-5 0  9997","OBJECT_NAME":"STARLINK-2181","CLASSIFICATION_TYPE":"U","SEMIMAJOR_AXIS":"6925.370","CENTER_NAME":"EARTH","INCLINATION":"53.0543","RA_OF_ASC_NODE":"216.4354","MEAN_MOTION_DOT":"-0.00000338","REV_AT_EPOCH":"7218","RCS_SIZE":"LARGE","SITE":"AFETR"},{"ELEMENT_SET_NO":"999","DECAY_DATE":null,"TLE_LINE1":"1 47764U 21017AU  22166.88787359 -.00001777  00000-0 -10041-3 0  9994","TIME_SYSTEM":"UTC","LAUNCH_DATE":"2021-03-04","CLASSIFICATION_TYPE":"U","OBJECT_NAME":"STARLINK-2182","CENTER_NAME":"EARTH","SEMIMAJOR_AXIS":"6925.369","RA_OF_ASC_NODE":"224.4819","INCLINATION":"53.0553","MEAN_MOTION_DOT":"-0.00001777","REV_AT_EPOCH":"7216","RCS_SIZE":"LARGE","SITE":"AFETR","TLE_LINE2":"2 47764  53.0553 224.4819 0001659  60.3248 299.7906 15.06393233 72168","ECCENTRICITY":"0.00016590","MEAN_MOTION_DDOT":"0.0000000000000","OBJECT_TYPE":"PAYLOAD","REF_FRAME":"TEME","GP_ID":"206288915","OBJECT_ID":"2021-017AU","PERIAPSIS":"546.085","MEAN_ANOMALY":"299.7906","MEAN_ELEMENT_THEORY":"SGP4","ARG_OF_PERICENTER":"60.3248","NORAD_CAT_ID":"47764","EPHEMERIS_TYPE":"0","APOAPSIS":"548.383","FILE":"3497002","COUNTRY_CODE":"US","BSTAR":"-0.00010041000000","PERIOD":"95.593","EPOCH":"2022-06-15T21:18:32.278176","MEAN_MOTION":"15.06393233"},{"MEAN_ANOMALY":"323.6161","ARG_OF_PERICENTER":"36.4996","MEAN_ELEMENT_THEORY":"SGP4","NORAD_CAT_ID":"47766","EPHEMERIS_TYPE":"0","OBJECT_TYPE":"PAYLOAD","REF_FRAME":"TEME","GP_ID":"206212621","PERIAPSIS":"543.920","OBJECT_ID":"2021-017AW","ECCENTRICITY":"0.00024780","MEAN_MOTION_DDOT":"0.0000000000000","TLE_LINE2":"2 47766  53.0555 224.6898 0002478  36.4996 323.6161 15.06915052 71477","MEAN_MOTION":"15.06915052","BSTAR":"0.00360890000000","PERIOD":"95.559","EPOCH":"2022-06-15T20:08:28.978656","FILE":"3496888","APOAPSIS":"547.351","COUNTRY_CODE":"US","CENTER_NAME":"EARTH","SEMIMAJOR_AXIS":"6923.770","CLASSIFICATION_TYPE":"U","OBJECT_NAME":"STARLINK-2184","TLE_LINE1":"1 47766U 21017AW  22166.83922429  .00054651  00000-0  36089-2 0  9996","TIME_SYSTEM":"UTC","LAUNCH_DATE":"2021-03-04","ELEMENT_SET_NO":"999","DECAY_DATE":null,"SITE":"AFETR","RCS_SIZE":"LARGE","REV_AT_EPOCH":"7147","MEAN_MOTION_DOT":"0.00054651","RA_OF_ASC_NODE":"224.6898","INCLINATION":"53.0555"},{"CLASSIFICATION_TYPE":"U","OBJECT_NAME":"STARLINK-2185","CENTER_NAME":"EARTH","SEMIMAJOR_AXIS":"6925.362","ELEMENT_SET_NO":"999","DECAY_DATE":null,"TLE_LINE1":"1 47767U 21017AX  22166.40086084 -.00001483  00000-0 -80667-4 0  9998","TIME_SYSTEM":"UTC","LAUNCH_DATE":"2021-03-04","RCS_SIZE":"LARGE","SITE":"AFETR","RA_OF_ASC_NODE":"211.6650","INCLINATION":"53.0543","REV_AT_EPOCH":"7230","MEAN_MOTION_DOT":"-0.00001483","OBJECT_TYPE":"PAYLOAD","REF_FRAME":"TEME","GP_ID":"206206479","OBJECT_ID":"2021-017AX","PERIAPSIS":"546.086","MEAN_ANOMALY":"297.8202","ARG_OF_PERICENTER":"62.2954","MEAN_ELEMENT_THEORY":"SGP4","NORAD_CAT_ID":"47767","EPHEMERIS_TYPE":"0","TLE_LINE2":"2 47767  53.0543 211.6650 0001647  62.2954 297.8202 15.06395676 72300","ECCENTRICITY":"0.00016470","MEAN_MOTION_DDOT":"0.0000000000000","MEAN_MOTION":"15.06395676","FILE":"3496794","APOAPSIS":"548.367","COUNTRY_CODE":"US","BSTAR":"-0.00008066700000","PERIOD":"95.592","EPOCH":"2022-06-15T09:37:14.376576"},{"TLE_LINE2":"2 47768  53.0530 224.4907 0001996  52.6378 307.4792 15.06303961 72144","ECCENTRICITY":"0.00019960","MEAN_MOTION_DDOT":"0.0000000000000","REF_FRAME":"TEME","OBJECT_TYPE":"PAYLOAD","OBJECT_ID":"2021-017AY","PERIAPSIS":"546.126","GP_ID":"206288668","MEAN_ANOMALY":"307.4792","ARG_OF_PERICENTER":"52.6378","MEAN_ELEMENT_THEORY":"SGP4","EPHEMERIS_TYPE":"0","NORAD_CAT_ID":"47768","COUNTRY_CODE":"US","FILE":"3497002","APOAPSIS":"548.890","BSTAR":"0.00650590000000","EPOCH":"2022-06-15T23:20:45.027168","PERIOD":"95.598","MEAN_MOTION":"15.06303961","DECAY_DATE":null,"ELEMENT_SET_NO":"999","TLE_LINE1":"1 47768U 21017AY  22166.97274337  .00097722  00000-0  65059-2 0  9996","TIME_SYSTEM":"UTC","LAUNCH_DATE":"2021-03-04","CLASSIFICATION_TYPE":"U","OBJECT_NAME":"STARLINK-2189","CENTER_NAME":"EARTH","SEMIMAJOR_AXIS":"6925.643","RA_OF_ASC_NODE":"224.4907","INCLINATION":"53.0530","REV_AT_EPOCH":"7214","MEAN_MOTION_DOT":"0.00097722","RCS_SIZE":"LARGE","SITE":"AFETR"},{"OBJECT_ID":"2021-017AZ","PERIAPSIS":"545.918","GP_ID":"206237166","REF_FRAME":"TEME","OBJECT_TYPE":"PAYLOAD","EPHEMERIS_TYPE":"0","NORAD_CAT_ID":"47769","MEAN_ANOMALY":"308.0648","ARG_OF_PERICENTER":"52.0511","MEAN_ELEMENT_THEORY":"SGP4","TLE_LINE2":"2 47769  53.0561 189.9498 0001888  52.0511 308.0648 15.06395967 72630","MEAN_MOTION_DDOT":"0.0000000000000","ECCENTRICITY":"0.00018880","MEAN_MOTION":"15.06395967","COUNTRY_CODE":"US","FILE":"3496999","APOAPSIS":"548.533","EPOCH":"2022-06-15T18:46:36.371424","PERIOD":"95.592","BSTAR":"0.00001338900000","OBJECT_NAME":"STARLINK-2192","CLASSIFICATION_TYPE":"U","SEMIMAJOR_AXIS":"6925.361","CENTER_NAME":"EARTH","DECAY_DATE":null,"ELEMENT_SET_NO":"999","TIME_SYSTEM":"UTC","LAUNCH_DATE":"2021-03-04","TLE_LINE1":"1 47769U 21017AZ  22166.78236541 -.00000082  00000-0  13389-4 0  9996","RCS_SIZE":"LARGE","SITE":"AFETR","INCLINATION":"53.0561","RA_OF_ASC_NODE":"189.9498","REV_AT_EPOCH":"7263","MEAN_MOTION_DOT":"-0.00000082"},{"PERIAPSIS":"545.965","OBJECT_ID":"2021-017BA","GP_ID":"206207718","REF_FRAME":"TEME","OBJECT_TYPE":"PAYLOAD","EPHEMERIS_TYPE":"0","NORAD_CAT_ID":"47770","MEAN_ANOMALY":"311.8204","ARG_OF_PERICENTER":"48.2942","MEAN_ELEMENT_THEORY":"SGP4","TLE_LINE2":"2 47770  53.0511 206.6982 0001840  48.2942 311.8204 15.06391563 72341","MEAN_MOTION_DDOT":"0.0000000000000","ECCENTRICITY":"0.00018400","MEAN_MOTION":"15.06391563","COUNTRY_CODE":"US","FILE":"3496794","APOAPSIS":"548.514","EPOCH":"2022-06-15T09:24:38.674656","PERIOD":"95.593","BSTAR":"-0.00013846000000","OBJECT_NAME":"STARLINK-2193","CLASSIFICATION_TYPE":"U","SEMIMAJOR_AXIS":"6925.374","CENTER_NAME":"EARTH","DECAY_DATE":null,"ELEMENT_SET_NO":"999","LAUNCH_DATE":"2021-03-04","TIME_SYSTEM":"UTC","TLE_LINE1":"1 47770U 21017BA  22166.39211429 -.00002343  00000-0 -13846-3 0  9993","RCS_SIZE":"LARGE","SITE":"AFETR","INCLINATION":"53.0511","RA_OF_ASC_NODE":"206.6982","MEAN_MOTION_DOT":"-0.00002343","REV_AT_EPOCH":"7234"},{"PERIOD":"95.592","EPOCH":"2022-06-15T19:13:47.543808","BSTAR":"-0.00000488300000","APOAPSIS":"548.373","FILE":"3496999","COUNTRY_CODE":"US","MEAN_MOTION":"15.06399620","MEAN_MOTION_DDOT":"0.0000000000000","ECCENTRICITY":"0.00016720","TLE_LINE2":"2 47771  53.0538 204.8719 0001672  54.4595 305.6549 15.06399620 72418","NORAD_CAT_ID":"47771","EPHEMERIS_TYPE":"0","MEAN_ANOMALY":"305.6549","ARG_OF_PERICENTER":"54.4595","MEAN_ELEMENT_THEORY":"SGP4","GP_ID":"206236165","PERIAPSIS":"546.057","OBJECT_ID":"2021-017BB","OBJECT_TYPE":"PAYLOAD","REF_FRAME":"TEME","MEAN_MOTION_DOT":"-0.00000354","REV_AT_EPOCH":"7241","INCLINATION":"53.0538","RA_OF_ASC_NODE":"204.8719","SITE":"AFETR","RCS_SIZE":"LARGE","TIME_SYSTEM":"UTC","LAUNCH_DATE":"2021-03-04","TLE_LINE1":"1 47771U 21017BB  22166.80124472 -.00000354  00000-0 -48830-5 0  9994","ELEMENT_SET_NO":"999","DECAY_DATE":null,"SEMIMAJOR_AXIS":"6925.350","CENTER_NAME":"EARTH","OBJECT_NAME":"STARLINK-2194","CLASSIFICATION_TYPE":"U"}];
